{
  "type": "FeatureCollection",
  "features": [
    {
      "type": "Feature",
      "properties": {
        "norad_id": 66512,
        "name": "STARLINK-35366",
        "group": "last-30-days",
        "lat": 41.010305100260844,
        "lon": -99.55527179121894,
        "alt_km": 409.69231345975277,
        "timestamp": "2025-12-08T13:49:30.576558+00:00",
        "meta_object_name": "STARLINK-35366",
        "meta_object_id": "2025-263AD",
        "meta_epoch": "2025-12-08T06:00:02.999808",
        "meta_mean_motion": 15.50501029,
        "meta_eccentricity": 0.00016285,
        "meta_inclination": 43.0001,
        "meta_ra_of_asc_node": 151.291,
        "meta_arg_of_pericenter": 280.9379,
        "meta_mean_anomaly": 162.8216,
        "meta_ephemeris_type": 0,
        "meta_classification_type": "U",
        "meta_norad_cat_id": 66512,
        "meta_element_set_no": 999,
        "meta_rev_at_epoch": 491,
        "meta_bstar": 0.0012816864,
        "meta_mean_motion_dot": 0.00075366,
        "meta_mean_motion_ddot": 0,
        "tle_line1": "1 66512U 25263AD  25342.25003472  .00075366  00000+0  12817-2 0  9994",
        "tle_line2": "2 66512  43.0001 151.2910 0001628 280.9379 162.8216 15.50501029  4912"
      },
      "geometry": {
        "type": "Point",
        "coordinates": [
          -99.55527179121894,
          41.010305100260844
        ]
      }
    },
    {
      "type": "Feature",
      "properties": {
        "norad_id": 66513,
        "name": "STARLINK-35692",
        "group": "last-30-days",
        "lat": 42.17253741506658,
        "lon": -107.03998525695732,
        "alt_km": 409.43615159165074,
        "timestamp": "2025-12-08T13:49:30.576568+00:00",
        "meta_object_name": "STARLINK-35692",
        "meta_object_id": "2025-263AE",
        "meta_epoch": "2025-12-08T06:00:02.999808",
        "meta_mean_motion": 15.50573544,
        "meta_eccentricity": 0.00015054,
        "meta_inclination": 43.0003,
        "meta_ra_of_asc_node": 151.3045,
        "meta_arg_of_pericenter": 266.6918,
        "meta_mean_anomaly": 171.3137,
        "meta_ephemeris_type": 0,
        "meta_classification_type": "U",
        "meta_norad_cat_id": 66513,
        "meta_element_set_no": 999,
        "meta_rev_at_epoch": 491,
        "meta_bstar": -0.00076578141,
        "meta_mean_motion_dot": -0.00045,
        "meta_mean_motion_ddot": 0,
        "tle_line1": "1 66513U 25263AE  25342.25003472 -.00045000  00000+0 -76578-3 0  9994",
        "tle_line2": "2 66513  43.0003 151.3045 0001505 266.6918 171.3137 15.50573544  4917"
      },
      "geometry": {
        "type": "Point",
        "coordinates": [
          -107.03998525695732,
          42.17253741506658
        ]
      }
    },
    {
      "type": "Feature",
      "properties": {
        "norad_id": 66514,
        "name": "SENTINEL-6B",
        "group": "last-30-days",
        "lat": -35.19631155289048,
        "lon": 152.82338887946807,
        "alt_km": 1320.7290374683516,
        "timestamp": "2025-12-08T13:49:30.576580+00:00",
        "meta_object_name": "SENTINEL-6B",
        "meta_object_id": "2025-264A",
        "meta_epoch": "2025-12-08T06:33:03.191040",
        "meta_mean_motion": 12.84031978,
        "meta_eccentricity": 0.00210419,
        "meta_inclination": 66.0386,
        "meta_ra_of_asc_node": 171.7349,
        "meta_arg_of_pericenter": 268.4321,
        "meta_mean_anomaly": 91.4286,
        "meta_ephemeris_type": 0,
        "meta_classification_type": "U",
        "meta_norad_cat_id": 66514,
        "meta_element_set_no": 999,
        "meta_rev_at_epoch": 271,
        "meta_bstar": 0.0001272869,
        "meta_mean_motion_dot": -3.1e-07,
        "meta_mean_motion_ddot": 0,
        "tle_line1": "1 66514U 25264A   25342.27295360 -.00000031  00000+0  12729-3 0  9999",
        "tle_line2": "2 66514  66.0386 171.7349 0021041 268.4321  91.4286 12.84031978  2712"
      },
      "geometry": {
        "type": "Point",
        "coordinates": [
          152.82338887946807,
          -35.19631155289048
        ]
      }
    },
    {
      "type": "Feature",
      "properties": {
        "norad_id": 66516,
        "name": "STARLINK-35924",
        "group": "last-30-days",
        "lat": -40.62774096047748,
        "lon": -34.570198145114155,
        "alt_km": 400.1863087522988,
        "timestamp": "2025-12-08T13:49:30.576591+00:00",
        "meta_object_name": "STARLINK-35924",
        "meta_object_id": "2025-265A",
        "meta_epoch": "2025-12-08T06:00:02.999808",
        "meta_mean_motion": 15.57918486,
        "meta_eccentricity": 0.00010108,
        "meta_inclination": 43.0006,
        "meta_ra_of_asc_node": 80.3313,
        "meta_arg_of_pericenter": 263.8229,
        "meta_mean_anomaly": 319.1101,
        "meta_ephemeris_type": 0,
        "meta_classification_type": "U",
        "meta_norad_cat_id": 66516,
        "meta_element_set_no": 999,
        "meta_rev_at_epoch": 425,
        "meta_bstar": -0.029206749,
        "meta_mean_motion_dot": -0.01969942,
        "meta_mean_motion_ddot": 0,
        "tle_line1": "1 66516U 25265A   25342.25003472 -.01969942  00000+0 -29207-1 0  9995",
        "tle_line2": "2 66516  43.0006  80.3313 0001010 263.8229 319.1101 15.57918486  4252"
      },
      "geometry": {
        "type": "Point",
        "coordinates": [
          -34.570198145114155,
          -40.62774096047748
        ]
      }
    },
    {
      "type": "Feature",
      "properties": {
        "norad_id": 66517,
        "name": "STARLINK-35937",
        "group": "last-30-days",
        "lat": -41.11112950977258,
        "lon": -32.12637161129086,
        "alt_km": 400.1816649788825,
        "timestamp": "2025-12-08T13:49:30.576603+00:00",
        "meta_object_name": "STARLINK-35937",
        "meta_object_id": "2025-265B",
        "meta_epoch": "2025-12-08T06:00:02.999808",
        "meta_mean_motion": 15.57919406,
        "meta_eccentricity": 0.00010944,
        "meta_inclination": 43.0006,
        "meta_ra_of_asc_node": 80.327,
        "meta_arg_of_pericenter": 270.3022,
        "meta_mean_anomaly": 314.5497,
        "meta_ephemeris_type": 0,
        "meta_classification_type": "U",
        "meta_norad_cat_id": 66517,
        "meta_element_set_no": 999,
        "meta_rev_at_epoch": 427,
        "meta_bstar": -0.029278084,
        "meta_mean_motion_dot": -0.01974276,
        "meta_mean_motion_ddot": 0,
        "tle_line1": "1 66517U 25265B   25342.25003472 -.01974276  00000+0 -29278-1 0  9990",
        "tle_line2": "2 66517  43.0006  80.3270 0001094 270.3022 314.5497 15.57919406  4273"
      },
      "geometry": {
        "type": "Point",
        "coordinates": [
          -32.12637161129086,
          -41.11112950977258
        ]
      }
    },
    {
      "type": "Feature",
      "properties": {
        "norad_id": 66518,
        "name": "STARLINK-35962",
        "group": "last-30-days",
        "lat": -41.541430174680194,
        "lon": -29.649031026605662,
        "alt_km": 400.2193229965469,
        "timestamp": "2025-12-08T13:49:30.576613+00:00",
        "meta_object_name": "STARLINK-35962",
        "meta_object_id": "2025-265C",
        "meta_epoch": "2025-12-08T06:00:02.999808",
        "meta_mean_motion": 15.57917003,
        "meta_eccentricity": 0.00010596,
        "meta_inclination": 43.0001,
        "meta_ra_of_asc_node": 80.3221,
        "meta_arg_of_pericenter": 271.4839,
        "meta_mean_anomaly": 315.2847,
        "meta_ephemeris_type": 0,
        "meta_classification_type": "U",
        "meta_norad_cat_id": 66518,
        "meta_element_set_no": 999,
        "meta_rev_at_epoch": 427,
        "meta_bstar": -0.02921681,
        "meta_mean_motion_dot": -0.01970472,
        "meta_mean_motion_ddot": 0,
        "tle_line1": "1 66518U 25265C   25342.25003472 -.01970472  00000+0 -29217-1 0  9998",
        "tle_line2": "2 66518  43.0001  80.3221 0001059 271.4839 315.2847 15.57917003  4272"
      },
      "geometry": {
        "type": "Point",
        "coordinates": [
          -29.649031026605662,
          -41.541430174680194
        ]
      }
    },
    {
      "type": "Feature",
      "properties": {
        "norad_id": 66519,
        "name": "STARLINK-35931",
        "group": "last-30-days",
        "lat": -41.918931107246436,
        "lon": -27.136284565017746,
        "alt_km": 400.2270465751926,
        "timestamp": "2025-12-08T13:49:30.576623+00:00",
        "meta_object_name": "STARLINK-35931",
        "meta_object_id": "2025-265D",
        "meta_epoch": "2025-12-08T06:00:02.999808",
        "meta_mean_motion": 15.57921131,
        "meta_eccentricity": 0.0001035,
        "meta_inclination": 43.0003,
        "meta_ra_of_asc_node": 80.3173,
        "meta_arg_of_pericenter": 267.4105,
        "meta_mean_anomaly": 321.2736,
        "meta_ephemeris_type": 0,
        "meta_classification_type": "U",
        "meta_norad_cat_id": 66519,
        "meta_element_set_no": 999,
        "meta_rev_at_epoch": 427,
        "meta_bstar": -0.029310526,
        "meta_mean_motion_dot": -0.01976267,
        "meta_mean_motion_ddot": 0,
        "tle_line1": "1 66519U 25265D   25342.25003472 -.01976267  00000+0 -29311-1 0  9992",
        "tle_line2": "2 66519  43.0003  80.3173 0001035 267.4105 321.2736 15.57921131  4277"
      },
      "geometry": {
        "type": "Point",
        "coordinates": [
          -27.136284565017746,
          -41.918931107246436
        ]
      }
    }
  ]
}